ONEWEB-0183             
1 48219U 21031K   25213.42086031 -.00000018  00000+0 -82718-4 0  9998
2 48219  87.9065 353.3492 0002105 105.0662 255.0701 13.14502653206310
ONEWEB-0185             
1 48220U 21031L   25213.37089606  .00000188  00000+0  47212-3 0  9990
2 48220  87.9067 353.3248 0001480 107.4800 252.6491 13.14501427206236
ONEWEB-0187             
1 48221U 21031M   25213.42706237 -.00000147  00000+0 -42999-3 0  9997
2 48221  87.9067 353.3605 0001496  97.9723 262.1576 13.14502675206256
ONEWEB-0192             
1 48222U 21031N   25213.47318508  .00000094  00000+0  21812-3 0  9993
2 48222  87.9072 353.3439 0001779  93.7927 266.3406 13.14504113206170
ONEWEB-0219             
1 48223U 21031P   25213.45258774  .00000257  00000+0  65795-3 0  9999
2 48223  87.9071 353.3207 0001524 100.7537 259.3764 13.14504814206387
ONEWEB-0202             
1 48224U 21031Q   25213.81412732 -.00000097  00000+0 -29530-3 0  9997
2 48224  87.9069 353.2631 0001571  71.9447 288.1854 13.14504307206417
ONEWEB-0204             
1 48225U 21031R   25213.46762943  .00000238  00000+0  60721-3 0  9993
2 48225  87.9054 353.3270 0001856 106.3482 253.7852 13.14504312206254
ONEWEB-0205             
1 48226U 21031S   25213.36694256  .00000097  00000+0  22672-3 0  9990
2 48226  87.9065 353.3351 0001593  98.0438 262.0872 13.14501620206257
ONEWEB-0206             
1 48227U 21031T   25213.33997371 -.00000151  00000+0 -44121-3 0  9998
2 48227  87.9067 353.3202 0001741  98.8529 261.2798 13.14504410206202
ONEWEB-0182             
1 48228U 21031U   25213.33523657 -.00000131  00000+0 -38769-3 0  9990
2 48228  87.9068 353.3656 0001801 104.2192 255.9138 13.14502957206417
ONEWEB-0186             
1 48229U 21031V   25213.42244174 -.00000125  00000+0 -37132-3 0  9991
2 48229  87.9068 353.3095 0001718  96.8806 263.2519 13.14502025206387
ONEWEB-0181             
1 48230U 21031W   25213.40023205  .00000060  00000+0  12726-3 0  9999
2 48230  87.9073 353.3860 0001718  93.2528 266.8798 13.14504622206223
ONEWEB-0188             
1 48231U 21031X   25213.36218201  .00000100  00000+0  23498-3 0  9990
2 48231  87.9069 353.3844 0001763  98.1201 262.0129 13.14504256206121
ONEWEB-0220             
1 48232U 21031Y   25213.40183388  .00000018  00000+0  15430-4 0  9999
2 48232  87.9064 353.3168 0001576 100.9315 259.1992 13.14502824206399
ONEWEB-0165             
1 48233U 21031Z   25213.35425165 -.00000012  00000+0 -67836-4 0  9999
2 48233  87.9064 353.3702 0001565  97.2853 262.8454 13.14502435206344
ONEWEB-0199             
1 48234U 21031AA  25213.33839046 -.00000145  00000+0 -42563-3 0  9991
2 48234  87.9068 353.3366 0001960  97.5859 262.5493 13.14504524206243
ONEWEB-0203             
1 48235U 21031AB  25213.40500039 -.00000037  00000+0 -13418-3 0  9994
2 48235  87.9068 353.3263 0001916  89.5780 270.5569 13.14501877206268
