[{"OBJECT_NAME":"ONEWEB-0183","OBJECT_ID":"2021-031K","EPOCH":"2025-08-01T10:06:02.330784","MEAN_MOTION":13.14502653,"ECCENTRICITY":0.0002105,"INCLINATION":87.9065,"RA_OF_ASC_NODE":353.3492,"ARG_OF_PERICENTER":105.0662,"MEAN_ANOMALY":255.0701,"EPHEMERIS_TYPE":0,"CLASSIFICATION_TYPE":"U","NORAD_CAT_ID":48219,"ELEMENT_SET_NO":999,"REV_AT_EPOCH":20631,"BSTAR":-8.2718e-5,"MEAN_MOTION_DOT":-1.8e-7,"MEAN_MOTION_DDOT":0},{"OBJECT_NAME":"ONEWEB-0185","OBJECT_ID":"2021-031L","EPOCH":"2025-08-01T08:54:05.419584","MEAN_MOTION":13.14501427,"ECCENTRICITY":0.000148,"INCLINATION":87.9067,"RA_OF_ASC_NODE":353.3248,"ARG_OF_PERICENTER":107.48,"MEAN_ANOMALY":252.6491,"EPHEMERIS_TYPE":0,"CLASSIFICATION_TYPE":"U","NORAD_CAT_ID":48220,"ELEMENT_SET_NO":999,"REV_AT_EPOCH":20623,"BSTAR":0.00047212,"MEAN_MOTION_DOT":1.88e-6,"MEAN_MOTION_DDOT":0},{"OBJECT_NAME":"ONEWEB-0187","OBJECT_ID":"2021-031M","EPOCH":"2025-08-01T10:14:58.188768","MEAN_MOTION":13.14502675,"ECCENTRICITY":0.0001496,"INCLINATION":87.9067,"RA_OF_ASC_NODE":353.3605,"ARG_OF_PERICENTER":97.9723,"MEAN_ANOMALY":262.1576,"EPHEMERIS_TYPE":0,"CLASSIFICATION_TYPE":"U","NORAD_CAT_ID":48221,"ELEMENT_SET_NO":999,"REV_AT_EPOCH":20625,"BSTAR":-0.00042999,"MEAN_MOTION_DOT":-1.47e-6,"MEAN_MOTION_DDOT":0},{"OBJECT_NAME":"ONEWEB-0192","OBJECT_ID":"2021-031N","EPOCH":"2025-08-01T11:21:23.190912","MEAN_MOTION":13.14504113,"ECCENTRICITY":0.0001779,"INCLINATION":87.9072,"RA_OF_ASC_NODE":353.3439,"ARG_OF_PERICENTER":93.7927,"MEAN_ANOMALY":266.3406,"EPHEMERIS_TYPE":0,"CLASSIFICATION_TYPE":"U","NORAD_CAT_ID":48222,"ELEMENT_SET_NO":999,"REV_AT_EPOCH":20617,"BSTAR":0.00021812,"MEAN_MOTION_DOT":9.4e-7,"MEAN_MOTION_DDOT":0},{"OBJECT_NAME":"ONEWEB-0219","OBJECT_ID":"2021-031P","EPOCH":"2025-08-01T10:51:43.580736","MEAN_MOTION":13.14504814,"ECCENTRICITY":0.0001524,"INCLINATION":87.9071,"RA_OF_ASC_NODE":353.3207,"ARG_OF_PERICENTER":100.7537,"MEAN_ANOMALY":259.3764,"EPHEMERIS_TYPE":0,"CLASSIFICATION_TYPE":"U","NORAD_CAT_ID":48223,"ELEMENT_SET_NO":999,"REV_AT_EPOCH":20638,"BSTAR":0.00065795,"MEAN_MOTION_DOT":2.57e-6,"MEAN_MOTION_DDOT":0},{"OBJECT_NAME":"ONEWEB-0202","OBJECT_ID":"2021-031Q","EPOCH":"2025-08-01T19:32:20.600448","MEAN_MOTION":13.14504307,"ECCENTRICITY":0.0001571,"INCLINATION":87.9069,"RA_OF_ASC_NODE":353.2631,"ARG_OF_PERICENTER":71.9447,"MEAN_ANOMALY":288.1854,"EPHEMERIS_TYPE":0,"CLASSIFICATION_TYPE":"U","NORAD_CAT_ID":48224,"ELEMENT_SET_NO":999,"REV_AT_EPOCH":20641,"BSTAR":-0.0002953,"MEAN_MOTION_DOT":-9.7e-7,"MEAN_MOTION_DDOT":0},{"OBJECT_NAME":"ONEWEB-0204","OBJECT_ID":"2021-031R","EPOCH":"2025-08-01T11:13:23.182752","MEAN_MOTION":13.14504312,"ECCENTRICITY":0.0001856,"INCLINATION":87.9054,"RA_OF_ASC_NODE":353.327,"ARG_OF_PERICENTER":106.3482,"MEAN_ANOMALY":253.7852,"EPHEMERIS_TYPE":0,"CLASSIFICATION_TYPE":"U","NORAD_CAT_ID":48225,"ELEMENT_SET_NO":999,"REV_AT_EPOCH":20625,"BSTAR":0.00060721,"MEAN_MOTION_DOT":2.38e-6,"MEAN_MOTION_DDOT":0},{"OBJECT_NAME":"ONEWEB-0205","OBJECT_ID":"2021-031S","EPOCH":"2025-08-01T08:48:23.837184","MEAN_MOTION":13.1450162,"ECCENTRICITY":0.0001593,"INCLINATION":87.9065,"RA_OF_ASC_NODE":353.3351,"ARG_OF_PERICENTER":98.0438,"MEAN_ANOMALY":262.0872,"EPHEMERIS_TYPE":0,"CLASSIFICATION_TYPE":"U","NORAD_CAT_ID":48226,"ELEMENT_SET_NO":999,"REV_AT_EPOCH":20625,"BSTAR":0.00022672,"MEAN_MOTION_DOT":9.7e-7,"MEAN_MOTION_DDOT":0},{"OBJECT_NAME":"ONEWEB-0206","OBJECT_ID":"2021-031T","EPOCH":"2025-08-01T08:09:33.728544","MEAN_MOTION":13.1450441,"ECCENTRICITY":0.0001741,"INCLINATION":87.9067,"RA_OF_ASC_NODE":353.3202,"ARG_OF_PERICENTER":98.8529,"MEAN_ANOMALY":261.2798,"EPHEMERIS_TYPE":0,"CLASSIFICATION_TYPE":"U","NORAD_CAT_ID":48227,"ELEMENT_SET_NO":999,"REV_AT_EPOCH":20620,"BSTAR":-0.00044121,"MEAN_MOTION_DOT":-1.51e-6,"MEAN_MOTION_DDOT":0},{"OBJECT_NAME":"ONEWEB-0182","OBJECT_ID":"2021-031U","EPOCH":"2025-08-01T08:02:44.439648","MEAN_MOTION":13.14502957,"ECCENTRICITY":0.0001801,"INCLINATION":87.9068,"RA_OF_ASC_NODE":353.3656,"ARG_OF_PERICENTER":104.2192,"MEAN_ANOMALY":255.9138,"EPHEMERIS_TYPE":0,"CLASSIFICATION_TYPE":"U","NORAD_CAT_ID":48228,"ELEMENT_SET_NO":999,"REV_AT_EPOCH":20641,"BSTAR":-0.00038769,"MEAN_MOTION_DOT":-1.31e-6,"MEAN_MOTION_DDOT":0},{"OBJECT_NAME":"ONEWEB-0186","OBJECT_ID":"2021-031V","EPOCH":"2025-08-01T10:08:18.966336","MEAN_MOTION":13.14502025,"ECCENTRICITY":0.0001718,"INCLINATION":87.9068,"RA_OF_ASC_NODE":353.3095,"ARG_OF_PERICENTER":96.8806,"MEAN_ANOMALY":263.2519,"EPHEMERIS_TYPE":0,"CLASSIFICATION_TYPE":"U","NORAD_CAT_ID":48229,"ELEMENT_SET_NO":999,"REV_AT_EPOCH":20638,"BSTAR":-0.00037132,"MEAN_MOTION_DOT":-1.25e-6,"MEAN_MOTION_DDOT":0},{"OBJECT_NAME":"ONEWEB-0181","OBJECT_ID":"2021-031W","EPOCH":"2025-08-01T09:36:20.049120","MEAN_MOTION":13.14504622,"ECCENTRICITY":0.0001718,"INCLINATION":87.9073,"RA_OF_ASC_NODE":353.386,"ARG_OF_PERICENTER":93.2528,"MEAN_ANOMALY":266.8798,"EPHEMERIS_TYPE":0,"CLASSIFICATION_TYPE":"U","NORAD_CAT_ID":48230,"ELEMENT_SET_NO":999,"REV_AT_EPOCH":20622,"BSTAR":0.00012726,"MEAN_MOTION_DOT":6.0e-7,"MEAN_MOTION_DDOT":0},{"OBJECT_NAME":"ONEWEB-0188","OBJECT_ID":"2021-031X","EPOCH":"2025-08-01T08:41:32.525664","MEAN_MOTION":13.14504256,"ECCENTRICITY":0.0001763,"INCLINATION":87.9069,"RA_OF_ASC_NODE":353.3844,"ARG_OF_PERICENTER":98.1201,"MEAN_ANOMALY":262.0129,"EPHEMERIS_TYPE":0,"CLASSIFICATION_TYPE":"U","NORAD_CAT_ID":48231,"ELEMENT_SET_NO":999,"REV_AT_EPOCH":20612,"BSTAR":0.00023498,"MEAN_MOTION_DOT":1.0e-6,"MEAN_MOTION_DDOT":0},{"OBJECT_NAME":"ONEWEB-0220","OBJECT_ID":"2021-031Y","EPOCH":"2025-08-01T09:38:38.447232","MEAN_MOTION":13.14502824,"ECCENTRICITY":0.0001576,"INCLINATION":87.9064,"RA_OF_ASC_NODE":353.3168,"ARG_OF_PERICENTER":100.9315,"MEAN_ANOMALY":259.1992,"EPHEMERIS_TYPE":0,"CLASSIFICATION_TYPE":"U","NORAD_CAT_ID":48232,"ELEMENT_SET_NO":999,"REV_AT_EPOCH":20639,"BSTAR":1.543e-5,"MEAN_MOTION_DOT":1.8e-7,"MEAN_MOTION_DDOT":0},{"OBJECT_NAME":"ONEWEB-0165","OBJECT_ID":"2021-031Z","EPOCH":"2025-08-01T08:30:07.342560","MEAN_MOTION":13.14502435,"ECCENTRICITY":0.0001565,"INCLINATION":87.9064,"RA_OF_ASC_NODE":353.3702,"ARG_OF_PERICENTER":97.2853,"MEAN_ANOMALY":262.8454,"EPHEMERIS_TYPE":0,"CLASSIFICATION_TYPE":"U","NORAD_CAT_ID":48233,"ELEMENT_SET_NO":999,"REV_AT_EPOCH":20634,"BSTAR":-6.7836e-5,"MEAN_MOTION_DOT":-1.2e-7,"MEAN_MOTION_DDOT":0},{"OBJECT_NAME":"ONEWEB-0199","OBJECT_ID":"2021-031AA","EPOCH":"2025-08-01T08:07:16.935744","MEAN_MOTION":13.14504524,"ECCENTRICITY":0.000196,"INCLINATION":87.9068,"RA_OF_ASC_NODE":353.3366,"ARG_OF_PERICENTER":97.5859,"MEAN_ANOMALY":262.5493,"EPHEMERIS_TYPE":0,"CLASSIFICATION_TYPE":"U","NORAD_CAT_ID":48234,"ELEMENT_SET_NO":999,"REV_AT_EPOCH":20624,"BSTAR":-0.00042563,"MEAN_MOTION_DOT":-1.45e-6,"MEAN_MOTION_DDOT":0},{"OBJECT_NAME":"ONEWEB-0203","OBJECT_ID":"2021-031AB","EPOCH":"2025-08-01T09:43:12.033696","MEAN_MOTION":13.14501877,"ECCENTRICITY":0.0001916,"INCLINATION":87.9068,"RA_OF_ASC_NODE":353.3263,"ARG_OF_PERICENTER":89.578,"MEAN_ANOMALY":270.5569,"EPHEMERIS_TYPE":0,"CLASSIFICATION_TYPE":"U","NORAD_CAT_ID":48235,"ELEMENT_SET_NO":999,"REV_AT_EPOCH":20626,"BSTAR":-0.00013418,"MEAN_MOTION_DOT":-3.7e-7,"MEAN_MOTION_DDOT":0}]
